FLOCK 3P-5              
1 41971U 17008Z   17171.91595994  .00001278  00000-0  58354-4 0  9993
2 41971  97.4959 233.2275 0008881 169.4875 190.6549 15.22420277 18876
FLOCK 3P-12             
1 41972U 17008AA  17171.91477714  .00002523  00000-0  11209-3 0  9994
2 41972  97.4959 233.2285 0008722 169.3363 190.8060 15.22442922 19022
FLOCK 3P-9              
1 41973U 17008AB  17171.91832853  .00002450  00000-0  10904-3 0  9994
2 41973  97.4960 233.2264 0008944 167.6900 192.4557 15.22404783 19028
FLOCK 3P-10             
1 41974U 17008AC  17171.91229405  .00002550  00000-0  11313-3 0  9994
2 41974  97.4961 233.2356 0008675 168.8323 191.3107 15.22475790 18917
FLOCK 3P-11             
1 41975U 17008AD  17171.92105162  .00002419  00000-0  10785-3 0  9995
2 41975  97.4959 233.2229 0008973 169.0230 191.1204 15.22366144 18913
FLOCK 3P-60             
1 41976U 17008AE  17171.90245772  .00001315  00000-0  59740-4 0  9995
2 41976  97.4962 233.2487 0008539 169.9837 190.1570 15.22540304 18270
FLOCK 3P-58             
1 41977U 17008AF  17171.91448303  .00001315  00000-0  59906-4 0  9996
2 41977  97.4960 233.2298 0008699 169.0368 191.1059 15.22434610 19104
FLOCK 3P-57             
1 41978U 17008AG  17171.91191737  .00002524  00000-0  11205-3 0  9995
2 41978  97.4959 233.2342 0008790 167.8688 192.2762 15.22471528 18949
FLOCK 3P-75             
1 41979U 17008AH  17171.91161753  .00002728  00000-0  12076-3 0  9994
2 41979  97.4981 233.2756 0008947 171.2495 188.8899 15.22487652 19097
FLOCK 3P-70             
1 41980U 17008AJ  17171.91118837  .00003795  00000-0  16685-3 0  9996
2 41980  97.4982 233.2773 0008913 170.6308 189.5096 15.22477542 18945
FLOCK 3P-73             
1 41981U 17008AK  17171.91437950  .00002650  00000-0  11765-3 0  9990
2 41981  97.4982 233.2731 0009092 171.5703 188.5688 15.22414941 19073
FLOCK 3P-88             
1 41982U 17008AL  17171.90889839  .00002561  00000-0  11349-3 0  9996
2 41982  97.4979 233.2756 0008921 171.1718 188.9677 15.22513142 18040
FLOCK 3P-85             
1 41983U 17008AM  17171.89699043  .00003486  00000-0  15316-3 0  9996
2 41983  97.4982 233.2938 0008705 174.7463 185.3867 15.22555554 18947
FLOCK 3P-79             
1 41984U 17008AN  17171.89776213  .00002379  00000-0  10554-3 0  9991
2 41984  97.4982 233.2923 0008361 174.1403 185.9932 15.22547200 18946
FLOCK 3P-86             
1 41985U 17008AP  17171.89847810  .00001533  00000-0  69120-4 0  9999
2 41985  97.4979 233.2892 0008329 173.3230 186.8119 15.22554579 18934
FLOCK 3P-36             
1 41986U 17008AQ  17171.90239405  .00001104  00000-0  50632-4 0  9999
2 41986  97.4963 233.2504 0008127 169.6539 190.4866 15.22555022 18422
FLOCK 3P-30             
1 41987U 17008AR  17171.89328174  .00001192  00000-0  54349-4 0  9996
2 41987  97.4963 233.2637 0008032 172.1153 188.0211 15.22585865 18892
FLOCK 3P-34             
1 41988U 17008AS  17171.90496964  .00002381  00000-0  10560-3 0  9999
2 41988  97.4959 233.2427 0008351 168.0745 192.0691 15.22559417 18420
FLOCK 3P-35             
1 41989U 17008AT  17171.90666534  .00002827  00000-0  12486-3 0  9996
2 41989  97.4959 233.2401 0008477 168.3551 191.7883 15.22543258 18425
FLOCK 3P-33             
1 41990U 17008AU  17171.90130043  .00001123  00000-0  51445-4 0  9996
2 41990  97.4960 233.2491 0008036 169.4588 190.6818 15.22552456 18427
LEMUR-2-SATCHMO         
1 41991U 17008AV  17171.91412169  .00001389  00000-0  63613-4 0  9994
2 41991  97.4958 233.2320 0008124 171.9994 188.1373 15.22163117 18423
LEMUR-2-MIA-GRACE       
1 41992U 17008AW  17171.90447757  .00001763  00000-0  79454-4 0  9991
2 41992  97.4961 233.2471 0008121 172.0810 188.0555 15.22361991 18422
LEMUR-2-SMITA-SHARAD    
1 41993U 17008AX  17171.90893582  .00001682  00000-0  76151-4 0  9994
2 41993  97.4959 233.2398 0008078 171.9396 188.1971 15.22272507 18423
LEMUR-2-SPIRE-MINIONS   
1 41994U 17008AY  17171.90797926  .00001921  00000-0  86401-4 0  9995
2 41994  97.4959 233.2400 0008189 171.4719 188.6657 15.22325285 18423
LEMUR-2-RDEATON         
1 41995U 17008AZ  17171.90664034  .00001675  00000-0  75759-4 0  9999
2 41995  97.4960 233.2442 0008750 186.2541 173.8587 15.22299823 19105
LEMUR-2-NOGUECORREIG    
1 41996U 17008BA  17171.90124331  .00001765  00000-0  79438-4 0  9999
2 41996  97.4961 233.2518 0008698 186.5272 173.5853 15.22402235 18325
LEMUR-2-JOBANPUTRA      
1 41997U 17008BB  17171.89543523  .00002328  00000-0  10341-3 0  9999
2 41997  97.4962 233.2601 0008617 186.4805 173.6321 15.22526956 18410
LEMUR-2-TACHIKOMA       
1 41998U 17008BC  17171.90512558  .00001296  00000-0  59369-4 0  9993
2 41998  97.4959 233.2456 0008632 187.2300 172.8813 15.22278028 18344
BGUSAT                  
1 41999U 17008BD  17171.89116455  .00002153  00000-0  95691-4 0  9999
2 41999  97.4966 233.2701 0008593 187.8184 172.2920 15.22589283 18417
DIDO-2                  
1 42000U 17008BE  17171.90707803  .00001107  00000-0  51269-4 0  9999
2 42000  97.4958 233.2428 0008572 187.8245 172.2859 15.22213430 18423
FLOCK 3P-49             
1 42001U 17008BF  17171.88841378  .00002107  00000-0  93754-4 0  9999
2 42001  97.4962 233.2667 0008215 187.2960 172.8158 15.22577907 18943
FLOCK 3P-67             
1 42002U 17008BG  17171.89343176  .00002439  00000-0  10806-3 0  9998
2 42002  97.4960 233.2577 0008212 186.2673 173.8462 15.22569395 19109
FLOCK 3P-68             
1 42003U 17008BH  17171.89463366  .00002249  00000-0  99980-4 0  9993
2 42003  97.4958 233.2552 0008280 185.8384 174.2757 15.22547146 18740
FLOCK 3P-41             
1 42004U 17008BJ  17171.88482556  .00001201  00000-0  54733-4 0  9999
2 42004  97.4956 233.2636 0007957 188.5471 171.5631 15.22596138 18947
FLOCK 3P-45             
1 42005U 17008BK  17171.88893029  .00001137  00000-0  52054-4 0  9993
2 42005  97.4959 233.2632 0008040 187.2658 172.8463 15.22559993 19108
FLOCK 3P-48             
1 42006U 17008BL  17171.88756823  .00002257  00000-0  10023-3 0  9997
2 42006  97.4962 233.2667 0007919 188.4288 171.6817 15.22573330 18882
FLOCK 3P-43             
1 42007U 17008BM  17171.88524651  .00001143  00000-0  52274-4 0  9998
2 42007  97.4958 233.2657 0007798 188.1877 171.9233 15.22582231 19104
FLOCK 3P-42             
1 42008U 17008BN  17171.88520951  .00002444  00000-0  10821-3 0  9994
2 42008  97.4957 233.2637 0007876 187.9892 172.1221 15.22601838 19029
FLOCK 3P-61             
1 42009U 17008BP  17171.62002951  .00001765  00000-0  79043-4 0  9999
2 42009  97.4959 233.0055 0007717 191.2448 168.8617 15.22580345 19034
FLOCK 3P-40             
1 42010U 17008BQ  17171.61522150  .00002693  00000-0  11885-3 0  9998
2 42010  97.4953 233.0045 0007471 191.7362 168.3701 15.22624064 18299
FLOCK 3P-16             
1 42011U 17008BR  17171.86987077  .00001517  00000-0  68049-4 0  9998
2 42011  97.4954 233.2798 0007225 190.7937 169.3145 15.22749207 18270
FLOCK 3P-14             
1 42012U 17008BS  17171.93751460  .00001150  00000-0  52440-4 0  9993
2 42012  97.4957 233.3464 0007258 192.6746 167.4309 15.22670367 18901
FLOCK 3P-53             
1 42013U 17008BT  17171.94057055  .00001264  00000-0  57409-4 0  9990
2 42013  97.4949 233.3317 0007265 191.2416 168.8659 15.22635070 18902
FLOCK 3P-54             
1 42014U 17008BU  17171.87245150  .00001173  00000-0  53450-4 0  9999
2 42014  97.4954 233.2738 0007159 191.9279 168.1789 15.22660519 19107
PEASSS                  
1 42015U 17008BV  17171.92428075  .00001314  00000-0  59201-4 0  9992
2 42015  97.4948 233.3532 0006219 193.1457 166.9619 15.22834264 18918
AL-FARABI 1             
1 42016U 17008BW  17171.91791293  .00001644  00000-0  73021-4 0  9999
2 42016  97.4951 233.3653 0006119 193.5337 166.5736 15.22965474 19035
NAYIF-1 (EO-88)         
1 42017U 17008BX  17171.91676273  .00001671  00000-0  74156-4 0  9990
2 42017  97.4950 233.3663 0006086 193.8513 166.2558 15.22980801 19050
FLOCK 3P-23             
1 42018U 17008BY  17171.59932906  .00003205  00000-0  14187-3 0  9995
2 42018  97.4953 232.8713 0009383 168.2262 191.9196 15.22354840 17828
FLOCK 3P-76             
1 42019U 17008BZ  17171.90491760  .00002156  00000-0  95915-4 0  9992
2 42019  97.4984 233.2876 0008795 172.8923 187.2439 15.22562211 18933
FLOCK 3P-69             
1 42020U 17008CA  17171.90312309  .00002286  00000-0  10156-3 0  9992
2 42020  97.4983 233.2893 0008705 171.3728 188.7660 15.22548120 17823
FLOCK 3P-84             
1 42021U 17008CB  17171.91132843  .00002781  00000-0  12287-3 0  9994
2 42021  97.4979 233.2729 0009074 171.7777 188.3609 15.22541507 18940
FLOCK 3P-59             
1 42022U 17008CC  17171.90812240  .00002582  00000-0  11465-3 0  9996
2 42022  97.4960 233.2393 0008563 171.3206 188.8180 15.22444384 17968
FLOCK 3P-32             
1 42023U 17008CD  17171.91174358  .00002612  00000-0  11584-3 0  9995
2 42023  97.4960 233.2366 0008613 167.6343 192.5106 15.22464713 19101
FLOCK 3P-71             
1 42024U 17008CE  17171.91440265  .00003237  00000-0  14331-3 0  9996
2 42024  97.4985 233.2748 0008918 171.6402 188.4984 15.22351696 17978
FLOCK 3P-77             
1 42025U 17008CF  17171.90665532  .00003812  00000-0  16731-3 0  9997
2 42025  97.4981 233.2807 0008736 172.9383 187.1978 15.22538045 18943
FLOCK 3P-80             
1 42026U 17008CG  17171.16920720  .00001486  00000-0  66963-4 0  9997
2 42026  97.4979 232.5759 0008185 175.9583 184.1721 15.22617995 16978
FLOCK 3P-66             
1 42027U 17008CH  17171.89430667  .00002479  00000-0  10980-3 0  9994
2 42027  97.4962 233.2596 0008324 185.1329 174.9824 15.22562963 19051
FLOCK 3P-65             
1 42028U 17008CJ  17171.89266166  .00002370  00000-0  10513-3 0  9998
2 42028  97.4961 233.2615 0008208 185.2049 174.9103 15.22562275 18958
FLOCK 3P-50             
1 42029U 17008CK  17171.88967707  .00001577  00000-0  71034-4 0  9991
2 42029  97.4963 233.2682 0007979 187.5937 172.5180 15.22547285 18278
